{
  "type": "FeatureCollection",
  "features": [
    {
      "type": "Feature",
      "properties": {
        "norad_id": 35073,
        "name": "COSMOS 2251 DEB",
        "group": "cosmos-2251-debris",
        "lat": 29.503377594854896,
        "lon": 131.6212404229257,
        "alt_km": 561.8485765614823,
        "timestamp": "2025-12-17T10:52:54.748314+00:00",
        "meta_object_name": "COSMOS 2251 DEB",
        "meta_object_id": "1993-036AJC",
        "meta_epoch": "2025-12-15T05:25:47.046144",
        "meta_mean_motion": 15.00831653,
        "meta_eccentricity": 0.00109074,
        "meta_inclination": 73.9997,
        "meta_ra_of_asc_node": 325.5063,
        "meta_arg_of_pericenter": 67.0121,
        "meta_mean_anomaly": 293.2216,
        "meta_ephemeris_type": 0,
        "meta_classification_type": "U",
        "meta_norad_cat_id": 35073,
        "meta_element_set_no": 999,
        "meta_rev_at_epoch": 67516,
        "meta_bstar": 0.001951072,
        "meta_mean_motion_dot": 0.00024882,
        "meta_mean_motion_ddot": 0,
        "tle_line1": "1 35073U 93036AJC 25349.22623896  .00024882  00000+0  19511-2 0  9992",
        "tle_line2": "2 35073  73.9997 325.5063 0010907  67.0121 293.2216 15.00831653675164"
      },
      "geometry": {
        "type": "Point",
        "coordinates": [
          131.6212404229257,
          29.503377594854896
        ]
      }
    },
    {
      "type": "Feature",
      "properties": {
        "norad_id": 35284,
        "name": "COSMOS 2251 DEB",
        "group": "cosmos-2251-debris",
        "lat": -69.25419084726552,
        "lon": 124.77714612948849,
        "alt_km": 767.7610455335907,
        "timestamp": "2025-12-17T10:52:54.748324+00:00",
        "meta_object_name": "COSMOS 2251 DEB",
        "meta_object_id": "1993-036AJN",
        "meta_epoch": "2025-12-16T00:22:37.828704",
        "meta_mean_motion": 14.38321694,
        "meta_eccentricity": 0.00169136,
        "meta_inclination": 74.0489,
        "meta_ra_of_asc_node": 258.3918,
        "meta_arg_of_pericenter": 334.2537,
        "meta_mean_anomaly": 41.1453,
        "meta_ephemeris_type": 0,
        "meta_classification_type": "U",
        "meta_norad_cat_id": 35284,
        "meta_element_set_no": 999,
        "meta_rev_at_epoch": 65573,
        "meta_bstar": 0.00015700211,
        "meta_mean_motion_dot": 4.52e-06,
        "meta_mean_motion_ddot": 0,
        "tle_line1": "1 35284U 93036AJN 25350.01571561  .00000452  00000+0  15700-3 0  9990",
        "tle_line2": "2 35284  74.0489 258.3918 0016913 334.2537  41.1453 14.38321694655734"
      },
      "geometry": {
        "type": "Point",
        "coordinates": [
          124.77714612948849,
          -69.25419084726552
        ]
      }
    },
    {
      "type": "Feature",
      "properties": {
        "norad_id": 35287,
        "name": "COSMOS 2251 DEB",
        "group": "cosmos-2251-debris",
        "lat": 37.69918086586458,
        "lon": -79.73864653861015,
        "alt_km": 757.1771706333657,
        "timestamp": "2025-12-17T10:52:54.748335+00:00",
        "meta_object_name": "COSMOS 2251 DEB",
        "meta_object_id": "1993-036AJR",
        "meta_epoch": "2025-12-16T05:18:36.274752",
        "meta_mean_motion": 14.36379576,
        "meta_eccentricity": 0.00177263,
        "meta_inclination": 74.0305,
        "meta_ra_of_asc_node": 269.7384,
        "meta_arg_of_pericenter": 5.6153,
        "meta_mean_anomaly": 144.9594,
        "meta_ephemeris_type": 0,
        "meta_classification_type": "U",
        "meta_norad_cat_id": 35287,
        "meta_element_set_no": 999,
        "meta_rev_at_epoch": 86942,
        "meta_bstar": 0.0001345517,
        "meta_mean_motion_dot": 3.68e-06,
        "meta_mean_motion_ddot": 0,
        "tle_line1": "1 35287U 93036AJR 25350.22125318  .00000368  00000+0  13455-3 0  9992",
        "tle_line2": "2 35287  74.0305 269.7384 0017726   5.6153 144.9594 14.36379576869424"
      },
      "geometry": {
        "type": "Point",
        "coordinates": [
          -79.73864653861015,
          37.69918086586458
        ]
      }
    },
    {
      "type": "Feature",
      "properties": {
        "norad_id": 35288,
        "name": "COSMOS 2251 DEB",
        "group": "cosmos-2251-debris",
        "lat": -34.625784210938264,
        "lon": -5.410636503425793,
        "alt_km": 678.8882900454291,
        "timestamp": "2025-12-17T10:52:54.748345+00:00",
        "meta_object_name": "COSMOS 2251 DEB",
        "meta_object_id": "1993-036AJS",
        "meta_epoch": "2025-12-15T08:15:30.303072",
        "meta_mean_motion": 14.65486547,
        "meta_eccentricity": 0.00393272,
        "meta_inclination": 73.9514,
        "meta_ra_of_asc_node": 10.134,
        "meta_arg_of_pericenter": 243.2869,
        "meta_mean_anomaly": 116.4271,
        "meta_ephemeris_type": 0,
        "meta_classification_type": "U",
        "meta_norad_cat_id": 35288,
        "meta_element_set_no": 999,
        "meta_rev_at_epoch": 87916,
        "meta_bstar": 0.00067125427,
        "meta_mean_motion_dot": 3.647e-05,
        "meta_mean_motion_ddot": 0,
        "tle_line1": "1 35288U 93036AJS 25349.34410073  .00003647  00000+0  67125-3 0  9995",
        "tle_line2": "2 35288  73.9514  10.1340 0039327 243.2869 116.4271 14.65486547879167"
      },
      "geometry": {
        "type": "Point",
        "coordinates": [
          -5.410636503425793,
          -34.625784210938264
        ]
      }
    },
    {
      "type": "Feature",
      "properties": {
        "norad_id": 35290,
        "name": "COSMOS 2251 DEB",
        "group": "cosmos-2251-debris",
        "lat": 41.505573228135695,
        "lon": -144.57711762445987,
        "alt_km": 623.2636847090171,
        "timestamp": "2025-12-17T10:52:54.748356+00:00",
        "meta_object_name": "COSMOS 2251 DEB",
        "meta_object_id": "1993-036AJU",
        "meta_epoch": "2025-12-15T14:28:49.986048",
        "meta_mean_motion": 14.80473727,
        "meta_eccentricity": 0.00019506,
        "meta_inclination": 74.0058,
        "meta_ra_of_asc_node": 53.7782,
        "meta_arg_of_pericenter": 195.4132,
        "meta_mean_anomaly": 164.6986,
        "meta_ephemeris_type": 0,
        "meta_classification_type": "U",
        "meta_norad_cat_id": 35290,
        "meta_element_set_no": 999,
        "meta_rev_at_epoch": 88000,
        "meta_bstar": 0.0012248752,
        "meta_mean_motion_dot": 9.351e-05,
        "meta_mean_motion_ddot": 0,
        "tle_line1": "1 35290U 93036AJU 25349.60335632  .00009351  00000+0  12249-2 0  9998",
        "tle_line2": "2 35290  74.0058  53.7782 0001950 195.4132 164.6986 14.80473727880006"
      },
      "geometry": {
        "type": "Point",
        "coordinates": [
          -144.57711762445987,
          41.505573228135695
        ]
      }
    },
    {
      "type": "Feature",
      "properties": {
        "norad_id": 35432,
        "name": "COSMOS 2251 DEB",
        "group": "cosmos-2251-debris",
        "lat": 14.645080783227941,
        "lon": 9.903351692955875,
        "alt_km": 488.48469861793,
        "timestamp": "2025-12-17T10:52:54.748366+00:00",
        "meta_object_name": "COSMOS 2251 DEB",
        "meta_object_id": "1993-036AKA",
        "meta_epoch": "2025-12-16T19:03:28.319328",
        "meta_mean_motion": 15.23696758,
        "meta_eccentricity": 0.00123538,
        "meta_inclination": 74.0181,
        "meta_ra_of_asc_node": 6.999,
        "meta_arg_of_pericenter": 337.0259,
        "meta_mean_anomaly": 23.0386,
        "meta_ephemeris_type": 0,
        "meta_classification_type": "U",
        "meta_norad_cat_id": 35432,
        "meta_element_set_no": 999,
        "meta_rev_at_epoch": 87565,
        "meta_bstar": 0.0034333154,
        "meta_mean_motion_dot": 0.00083521,
        "meta_mean_motion_ddot": 0,
        "tle_line1": "1 35432U 93036AKA 25350.79407777  .00083521  00000+0  34333-2 0  9997",
        "tle_line2": "2 35432  74.0181   6.9990 0012353 337.0259  23.0386 15.23696758875651"
      },
      "geometry": {
        "type": "Point",
        "coordinates": [
          9.903351692955875,
          14.645080783227941
        ]
      }
    },
    {
      "type": "Feature",
      "properties": {
        "norad_id": 35433,
        "name": "COSMOS 2251 DEB",
        "group": "cosmos-2251-debris",
        "lat": 47.25392107022252,
        "lon": 131.76940711637937,
        "alt_km": 776.455289952728,
        "timestamp": "2025-12-17T10:52:54.748376+00:00",
        "meta_object_name": "COSMOS 2251 DEB",
        "meta_object_id": "1993-036AKB",
        "meta_epoch": "2025-12-10T18:27:52.031808",
        "meta_mean_motion": 14.34742553,
        "meta_eccentricity": 0.00254013,
        "meta_inclination": 74.0339,
        "meta_ra_of_asc_node": 342.0559,
        "meta_arg_of_pericenter": 37.4572,
        "meta_mean_anomaly": 142.4072,
        "meta_ephemeris_type": 0,
        "meta_classification_type": "U",
        "meta_norad_cat_id": 35433,
        "meta_element_set_no": 999,
        "meta_rev_at_epoch": 86552,
        "meta_bstar": 0.00041847558,
        "meta_mean_motion_dot": 1.164e-05,
        "meta_mean_motion_ddot": 0,
        "tle_line1": "1 35433U 93036AKB 25344.76935222  .00001164  00000+0  41848-3 0  9992",
        "tle_line2": "2 35433  74.0339 342.0559 0025401  37.4572 142.4072 14.34742553865528"
      },
      "geometry": {
        "type": "Point",
        "coordinates": [
          131.76940711637937,
          47.25392107022252
        ]
      }
    }
  ]
}